     2.11           N: GPS NAV DATA                         RINEX VERSION / TYPE
teqc  2018Aug29     UNAVCO Archive Ops  20180928 00:08:50UTCPGM / RUN BY / DATE
Solaris x86 5.10|AMD64|cc SC5.8 -xarch=amd64|=+|=+          COMMENT
    8.3819D-09  1.4901D-08 -5.9605D-08 -5.9605D-08          ION ALPHA
    8.3968D+04  1.6384D+04 -1.3107D+05 -6.5536D+04          ION BETA
    0.000000000000D+00 5.329070518201D-15   589824     2020 DELTA-UTC: A0,A1,T,W
                                                            END OF HEADER
21 18  9 27 22  0  0.0-3.302255645394D-04 6.025402399246D-12 0.000000000000D+00
    7.500000000000D+01 5.743750000000D+01 4.837344351952D-09-1.900733914408D+00
    3.449618816376D-06 2.434975793585D-02 6.532296538353D-06 5.153620344162D+03
    4.248000000000D+05 3.054738044739D-07 1.345770696477D+00 4.116445779800D-07
    9.450565470214D-01 2.397812500000D+02-1.524147172516D+00-8.092479941415D-09
    5.814527912712D-10 1.000000000000D+00 2.020000000000D+03 0.000000000000D+00
    2.000000000000D+00 0.000000000000D+00-1.024454832077D-08 7.500000000000D+01
    4.176180000000D+05 4.000000000000D+00
13 18  9 27 22  0  0.0-8.828472346067D-05 7.958078640513D-13 0.000000000000D+00
    4.700000000000D+01 2.675000000000D+01 4.206603793361D-09 8.528453592210D-01
    1.490116119385D-06 3.429788863286D-03 1.288019120693D-05 5.153678833008D+03
    4.248000000000D+05-7.823109626770D-08-2.670210362077D+00 2.048909664154D-08
    9.686824370088D-01 1.350625000000D+02 1.457370875312D+00-7.889614348392D-09
   -8.357490980188D-11 1.000000000000D+00 2.020000000000D+03 0.000000000000D+00
    2.000000000000D+00 0.000000000000D+00-1.117587089539D-08 4.700000000000D+01
    4.176180000000D+05 4.000000000000D+00
20 18  9 27 22  0  0.0 5.164607428014D-04 5.684341886081D-13 0.000000000000D+00
    6.900000000000D+01-4.009375000000D+01 5.714523747137D-09-2.741627840033D-01
   -2.155080437660D-06 4.311693948694D-03 4.740431904793D-06 5.153667612076D+03
    4.248000000000D+05-7.450580596924D-09 2.333021917556D+00-2.421438694000D-08
    9.290126074126D-01 2.714687500000D+02 2.113774336740D+00-8.828939189327D-09
   -1.657211886670D-10 1.000000000000D+00 2.020000000000D+03 0.000000000000D+00
    2.000000000000D+00 0.000000000000D+00-8.381903171539D-09 6.900000000000D+01
    4.176180000000D+05 4.000000000000D+00
26 18  9 27 22  0  0.0-7.300172001123D-06 1.148237060988D-11 0.000000000000D+00
    5.000000000000D+01-6.121875000000D+01 4.853059292256D-09-2.310596670769D+00
   -3.127381205559D-06 2.953909337521D-03 3.874301910400D-06 5.153723417282D+03
    4.248000000000D+05-2.048909664154D-08-7.163160937148D-01-2.421438694000D-08
    9.543570838204D-01 3.020312500000D+02 5.289041192081D-02-8.447494729206D-09
   -3.214419607765D-10 1.000000000000D+00 2.020000000000D+03 0.000000000000D+00
    2.000000000000D+00 0.000000000000D+00 7.450580596924D-09 5.000000000000D+01
    4.176180000000D+05 4.000000000000D+00
 8 18  9 27 22  0  0.0-1.166234724224D-04-1.364242052659D-12 0.000000000000D+00
    4.200000000000D+01-3.965625000000D+01 3.955164748487D-09 2.432425593295D+00
   -2.065673470497D-06 3.573297173716D-03 1.193769276142D-05 5.153635749817D+03
    4.248000000000D+05 2.235174179077D-08 3.381376238064D-01 2.793967723846D-08
    9.700285718008D-01 1.535000000000D+02-4.107484625565D-01-7.719250109180D-09
   -2.357241045694D-11 1.000000000000D+00 2.020000000000D+03 0.000000000000D+00
    2.000000000000D+00 0.000000000000D+00 5.122274160385D-09 4.200000000000D+01
    4.185060000000D+05 4.000000000000D+00
24 18  9 27 22  0  0.0-5.597760900855D-05-5.684341886081D-13 0.000000000000D+00
    6.100000000000D+01 8.706250000000D+01 5.298792144533D-09 2.321273997808D-01
    4.613772034645D-06 7.293768110685D-03 5.634501576424D-06 5.153627105713D+03
    4.248000000000D+05 1.117587089539D-08-1.788367994511D+00 4.097819328308D-08
    9.403435326026D-01 2.552500000000D+02 5.356648078579D-01-8.691076303928D-09
    1.953652806053D-10 1.000000000000D+00 2.020000000000D+03 0.000000000000D+00
    2.000000000000D+00 0.000000000000D+00 2.793967723846D-09 6.100000000000D+01
    4.190280000000D+05 4.000000000000D+00
32 18  9 27 22  0  0.0-4.106969572604D-04 1.182343112305D-11 0.000000000000D+00
    3.900000000000D+01 1.462500000000D+01 4.396968865688D-09 2.798995493717D+00
    7.450580596924D-07 2.306881709956D-03 1.193024218082D-05 5.153716615677D+03
    4.248000000000D+05-6.332993507385D-08-2.798162906077D+00-2.793967723846D-08
    9.574347021184D-01 1.477187500000D+02-2.559681030498D+00-7.874256565821D-09
   -1.732215010851D-10 1.000000000000D+00 2.020000000000D+03 0.000000000000D+00
    2.000000000000D+00 0.000000000000D+00 4.656612873077D-10 3.900000000000D+01
    4.196220000000D+05 4.000000000000D+00
14 18  9 27 22  0  0.0-9.707501158118D-05 2.273736754432D-13 0.000000000000D+00
    4.800000000000D+01 2.303125000000D+01 4.300536277455D-09 1.781435733366D+00
    1.074746251106D-06 1.003894954920D-02 1.201406121254D-05 5.153639652252D+03
    4.248000000000D+05-1.285225152969D-07-2.712938961734D+00-2.253800630569D-07
    9.612586339262D-01 1.500000000000D+02-1.943344885212D+00-7.847469735756D-09
   -8.678932940965D-11 1.000000000000D+00 2.020000000000D+03 0.000000000000D+00
    2.000000000000D+00 0.000000000000D+00-9.778887033463D-09 4.800000000000D+01
    4.223160000000D+05 4.000000000000D+00
18 18  9 27 22  0  0.0 6.206985563040D-05 4.206412995700D-12 0.000000000000D+00
    9.600000000000D+01 5.425000000000D+01 5.046995941925D-09-3.660992606580D-01
    2.825632691383D-06 1.498802274000D-02 7.385388016701D-06 5.153622545242D+03
    4.248000000000D+05-1.192092895508D-07 1.353563229524D+00 2.272427082062D-07
    9.507768595354D-01 2.397500000000D+02 1.352327517252D+00-8.605715605455D-09
    6.268118235141D-10 1.000000000000D+00 2.020000000000D+03 0.000000000000D+00
    2.000000000000D+00 0.000000000000D+00-6.519258022308D-09 9.600000000000D+01
    4.237920000000D+05 4.000000000000D+00
32 18  9 28  0  0  0.0-4.106122069061D-04 1.182343112305D-11 0.000000000000D+00
    4.100000000000D+01 7.468750000000D+00 4.459828626907D-09-2.434020014544D+00
    4.544854164124D-07 2.307911054231D-03 1.209788024426D-05 5.153714729309D+03
    4.320000000000D+05 0.000000000000D+00-2.798219844311D+00-4.842877388000D-08
    9.574334630268D-01 1.441250000000D+02-2.559695855710D+00-7.901043395886D-09
   -1.414344627416D-10 1.000000000000D+00 2.020000000000D+03 0.000000000000D+00
    2.000000000000D+00 0.000000000000D+00 4.656612873077D-10 4.100000000000D+01
    4.248180000000D+05 4.000000000000D+00
 8 18  9 28  0  0  0.0-1.166327856481D-04-1.364242052659D-12 0.000000000000D+00
    4.300000000000D+01-3.990625000000D+01 3.951593171145D-09-2.800450067312D+00
   -2.065673470497D-06 3.572791232727D-03 1.159310340881D-05 5.153636541367D+03
    4.320000000000D+05-2.235174179077D-08 3.380820621778D-01 5.029141902924D-08
    9.700282792171D-01 1.613125000000D+02-4.108577425370D-01-7.748537043384D-09
   -2.642967233051D-11 1.000000000000D+00 2.020000000000D+03 0.000000000000D+00
    2.000000000000D+00 0.000000000000D+00 5.122274160385D-09 4.300000000000D+01
    4.248180000000D+05 4.000000000000D+00
10 18  9 28  0  0  0.0 1.790141686797D-04-2.728484105319D-12 0.000000000000D+00
    6.200000000000D+01-4.365625000000D+01 4.864131182016D-09-1.068362156612D+00
   -2.285465598106D-06 3.822700469755D-03 5.466863512993D-06 5.153659191132D+03
    4.320000000000D+05 7.823109626770D-08 2.443193195546D+00-1.676380634308D-08
    9.616952213461D-01 2.724062500000D+02-2.805546209735D+00-8.303203004591D-09
   -2.117945363783D-10 1.000000000000D+00 2.020000000000D+03 0.000000000000D+00
    2.000000000000D+00 0.000000000000D+00 1.862645149231D-09 6.200000000000D+01
    4.248180000000D+05 4.000000000000D+00
15 18  9 28  0  0  0.0-3.446913324296D-04 1.023181539495D-12 0.000000000000D+00
    6.300000000000D+01-6.875000000000D+00 5.147000107500D-09 2.185230508879D+00
   -3.445893526077D-07 1.077057619113D-02 1.280382275581D-05 5.153576862335D+03
    4.320000000000D+05-2.328306436539D-07-2.877588143051D+00-1.974403858185D-07
    9.286384719655D-01 1.165937500000D+02 7.079769296237D-01-8.194269895661D-09
   -2.228664261384D-10 1.000000000000D+00 2.020000000000D+03 0.000000000000D+00
    2.000000000000D+00 0.000000000000D+00-1.071020960808D-08 6.300000000000D+01
    4.248180000000D+05 4.000000000000D+00
14 18  9 28  0  0  0.0-9.707361459732D-05 2.273736754432D-13 0.000000000000D+00
    4.900000000000D+01 1.718750000000D+01 4.303750697063D-09 2.831732340950D+00
    9.015202522278D-07 1.003978215158D-02 1.216121017933D-05 5.153637283325D+03
    4.320000000000D+05 5.215406417847D-08-2.712994445828D+00-1.266598701477D-07
    9.612586222229D-01 1.428437500000D+02-1.943440764863D+00-7.684248651229D-09
   -1.089331089298D-10 1.000000000000D+00 2.020000000000D+03 0.000000000000D+00
    2.000000000000D+00 0.000000000000D+00-9.778887033463D-09 4.900000000000D+01
    4.248180000000D+05 4.000000000000D+00
27 18  9 28  0  0  0.0 3.405255265534D-04-4.092726157978D-12 0.000000000000D+00
    7.000000000000D+00-3.896875000000D+01 3.692296656119D-09 3.107175544002D+00
   -2.048909664154D-06 6.048754556105D-03 1.164339482784D-05 5.153701528549D+03
    4.320000000000D+05-3.539025783539D-08 3.475178808632D-01-3.166496753693D-08
    9.782524067451D-01 1.642812500000D+02 4.495820442910D-01-7.591030482604D-09
    1.392915163365D-11 1.000000000000D+00 2.020000000000D+03 0.000000000000D+00
    2.000000000000D+00 0.000000000000D+00 1.862645149231D-09 7.000000000000D+00
    4.248180000000D+05 4.000000000000D+00
